{
    "links": {
        "self": "http://www.neowsapp.com/rest/v1/neo/3648710?api_key=iIulBulltgU6a56xZRHN4H3l9WmuAYTsLGpBGhQ2"
    },
    "id": "3648710",
    "neo_reference_id": "3648710",
    "name": "(2013 SM24)",
    "designation": "2013 SM24",
    "nasa_jpl_url": "http://ssd.jpl.nasa.gov/sbdb.cgi?sstr=3648710",
    "absolute_magnitude_h": 25.6,
    "estimated_diameter": {
        "kilometers": {
            "estimated_diameter_min": 0.0201629919,
            "estimated_diameter_max": 0.0450858206
        },
        "meters": {
            "estimated_diameter_min": 20.1629919443,
            "estimated_diameter_max": 45.0858206172
        },
        "miles": {
            "estimated_diameter_min": 0.0125286985,
            "estimated_diameter_max": 0.0280150214
        },
        "feet": {
            "estimated_diameter_min": 66.1515504905,
            "estimated_diameter_max": 147.9193637137
        }
    },
    "is_potentially_hazardous_asteroid": false,
    "close_approach_data": [
        {
            "close_approach_date": "2011-08-23",
            "close_approach_date_full": "2011-Aug-23 19:11",
            "epoch_date_close_approach": 1314126660000,
            "relative_velocity": {
                "kilometers_per_second": "8.1786949314",
                "kilometers_per_hour": "29443.3017530735",
                "miles_per_hour": "18294.9226920695"
            },
            "miss_distance": {
                "astronomical": "0.2581079327",
                "lunar": "100.4039858203",
                "kilometers": "38612396.962023349",
                "miles": "23992630.9191222562"
            },
            "orbiting_body": "Earth"
        },
        {
            "close_approach_date": "2013-09-10",
            "close_approach_date_full": "2013-Sep-10 08:55",
            "epoch_date_close_approach": 1378803300000,
            "relative_velocity": {
                "kilometers_per_second": "3.2593547077",
                "kilometers_per_hour": "11733.6769476829",
                "miles_per_hour": "7290.8505456311"
            },
            "miss_distance": {
                "astronomical": "0.0950759922",
                "lunar": "36.9845609658",
                "kilometers": "14223165.921256614",
                "miles": "8837865.4862007132"
            },
            "orbiting_body": "Earth"
        },
        {
            "close_approach_date": "2015-09-26",
            "close_approach_date_full": "2015-Sep-26 02:16",
            "epoch_date_close_approach": 1443233760000,
            "relative_velocity": {
                "kilometers_per_second": "8.7752255413",
                "kilometers_per_hour": "31590.811948734",
                "miles_per_hour": "19629.3020133675"
            },
            "miss_distance": {
                "astronomical": "0.283117249",
                "lunar": "110.132609861",
                "kilometers": "42353737.41065963",
                "miles": "26317392.073297694"
            },
            "orbiting_body": "Earth"
        }
    ],
    "orbital_data": {
        "orbit_id": "4",
        "orbit_determination_date": "2017-04-06 08:44:31",
        "first_observation_date": "2013-09-25",
        "last_observation_date": "2013-09-29",
        "data_arc_in_days": 4,
        "observations_used": 17,
        "orbit_uncertainty": "8",
        "minimum_orbit_intersection": ".0945797",
        "jupiter_tisserand_invariant": "4.290",
        "epoch_osculation": "2456563.5",
        "eccentricity": ".3154405655773221",
        "semi_major_axis": "1.608087400968251",
        "inclination": "2.38322960777051",
        "ascending_node_longitude": "179.7468564241727",
        "orbital_period": "744.8398447012619",
        "perihelion_distance": "1.10083140170906",
        "perihelion_argument": "169.6727052155613",
        "aphelion_distance": "2.115343400227442",
        "perihelion_time": "2456548.240504627837",
        "mean_anomaly": "7.37530137929445",
        "mean_motion": ".4833253786851155",
        "equinox": "J2000",
        "orbit_class": {
            "orbit_class_type": "AMO",
            "orbit_class_description": "Near-Earth asteroid orbits similar to that of 1221 Amor",
            "orbit_class_range": "1.017 AU < q (perihelion) < 1.3 AU"
        }
    },
    "is_sentry_object": false
}